[Satellite]
VERSION=1.1
NAME=IRIDIUM 180
NICKNAME=IRIDIUM 180
TLE1=1 43922U 19002A   20158.17174214  .00000092  00000-0  25934-4 0  9993
TLE2=2 43922  86.3999 193.8032 0002890 114.4753 245.6744 14.34215080 73411
STATUS=0
